NORAD_CAT_ID,OBJECT_NAME,OBJECT_TYPE,EPOCH,MEAN_MOTION,ECCENTRICITY,INCLINATION,RA_OF_ASC_NODE,ARG_OF_PERICENTER,MEAN_ANOMALY,BSTAR,MEAN_MOTION_DOT,MEAN_MOTION_DDOT,TLE_LINE0,TLE_LINE1,TLE_LINE2,SEMIMAJOR_AXIS,PERIOD,APOGEE,PERIGEE,DECAYED
56777.0,STARLINK-5582,PAYLOAD,2023-11-20 08:54:43,14.98336358,0.0002754,69.9994,303.3959,267.7905,92.2939,-2.0033e-05,-3.32e-06,0.0,0 STARLINK-5582,1 56777U 23078L   23324.37133736 -.00000332  00000-0 -20033-4 0  9991,2 56777  69.9994 303.3959 0002754 267.7905  92.2939 14.98336358 26806,6950.173,96.107,573.952,570.124,0.0
56777.0,STARLINK-5582,PAYLOAD,2023-11-21 02:32:13,14.98305964,0.000251,69.9991,301.5435,269.7799,90.3072,0.00040267,4.712e-05,0.0,0 STARLINK-5582,1 56777U 23078L   23325.10570630  .00004712  00000-0  40267-3 0  9995,2 56777  69.9991 301.5435 0002510 269.7799  90.3072 14.98305964 27172,6950.267,96.109,573.877,570.388,0.0
56777.0,STARLINK-5582,PAYLOAD,2023-11-21 08:56:44,14.98330503,0.0002519,69.9995,300.8707,266.7567,93.3304,5.7322e-05,5.91e-06,0.0,0 STARLINK-5582,1 56777U 23078L   23325.37273781  .00000591  00000-0  57322-4 0  9993,2 56777  69.9995 300.8707 0002519 266.7567  93.3304 14.98330503 27212,6950.191,96.107,573.807,570.306,0.0
56777.0,STARLINK-5582,PAYLOAD,2023-11-22 07:22:37,14.98329841,0.0002206,70.0007,298.5148,268.3352,91.7554,1.315e-05,6.4e-07,0.0,0 STARLINK-5582,1 56777U 23078L   23326.30738004  .00000064  00000-0  13150-4 0  9997,2 56777  70.0007 298.5148 0002206 268.3352  91.7554 14.98329841 27092,6950.193,96.107,573.592,570.525,0.0
56777.0,STARLINK-5582,PAYLOAD,2023-11-23 02:36:14,14.98330608,0.0002485,70.0,296.4961,255.0395,105.0489,6.4837e-06,-1.6e-07,0.0,0 STARLINK-5582,1 56777U 23078L   23327.10849785 -.00000016  00000-0  64837-5 0  9992,2 56777  70.0000 296.4961 0002485 255.0395 105.0489 14.98330608 27475,6950.191,96.107,573.783,570.329,0.0
56777.0,STARLINK-5582,PAYLOAD,2023-11-23 07:24:38,14.98330691,0.0002375,70.0004,295.9912,250.8111,109.2791,2.9336e-05,2.57e-06,0.0,0 STARLINK-5582,1 56777U 23078L   23327.30877705  .00000257  00000-0  29336-4 0  9997,2 56777  70.0004 295.9912 0002375 250.8111 109.2791 14.98330691 27245,6950.191,96.107,573.706,570.405,0.0
56777.0,STARLINK-5582,PAYLOAD,2023-11-23 21:49:51,14.9832589,0.0002288,70.0015,294.4776,227.8438,132.2527,3.3466e-07,-8.9e-07,0.0,0 STARLINK-5582,1 56777U 23078L   23327.90961979 -.00000089  00000-0  33466-6 0  9995,2 56777  70.0015 294.4776 0002288 227.8438 132.2527 14.98325890 27336,6950.206,96.107,573.661,570.48,0.0
56777.0,STARLINK-5582,PAYLOAD,2023-11-24 02:38:16,14.98319959,0.0002388,70.0005,293.9721,251.8363,108.2536,-8.7652e-05,-1.138e-05,0.0,0 STARLINK-5582,1 56777U 23078L   23328.10990757 -.00001138  00000-0 -87652-4 0  9995,2 56777  70.0005 293.9721 0002388 251.8363 108.2536 14.98319959 27628,6950.224,96.108,573.749,570.429,0.0
56777.0,STARLINK-5582,PAYLOAD,2023-11-24 07:26:40,14.98322842,0.0002277,70.0004,293.4655,280.5424,79.5478,-3.6031e-05,-5.23e-06,0.0,0 STARLINK-5582,1 56777U 23078L   23328.31018797 -.00000523  00000-0 -36031-4 0  9995,2 56777  70.0004 293.4655 0002277 280.5424  79.5478 14.98322842 27396,6950.215,96.107,573.663,570.497,0.0
56777.0,STARLINK-5582,PAYLOAD,2023-11-24 21:51:52,14.98327947,0.0002925,69.9989,291.9496,268.0045,92.0779,-1.5308e-05,-2.76e-06,0.0,0 STARLINK-5582,1 56777U 23078L   23328.91102320 -.00000276  00000-0 -15308-4 0  9996,2 56777  69.9989 291.9496 0002925 268.0045  92.0779 14.98327947 27486,6950.199,96.107,574.097,570.031,0.0
56777.0,STARLINK-5582,PAYLOAD,2023-11-25 02:40:16,14.98328381,0.0002789,69.9991,291.4436,266.5086,93.5754,5.593e-05,5.74e-06,0.0,0 STARLINK-5582,1 56777U 23078L   23329.11130099  .00000574  00000-0  55930-4 0  9997,2 56777  69.9991 291.4436 0002789 266.5086  93.5754 14.98328381 27778,6950.198,96.107,574.001,570.124,0.0
56777.0,STARLINK-5582,PAYLOAD,2023-11-25 07:28:39,14.98337081,0.0002676,69.9995,290.9394,262.6226,97.4629,0.00010399,1.148e-05,0.0,0 STARLINK-5582,1 56777U 23078L   23329.31157391  .00001148  00000-0  10399-3 0  9990,2 56777  69.9995 290.9394 0002676 262.6226  97.4629 14.98337081 27543,6950.171,96.107,573.896,570.176,0.0
56777.0,STARLINK-5582,PAYLOAD,2023-11-25 21:53:52,14.98330222,0.0002501,70.0003,289.4262,258.0696,102.0183,0.00016474,1.873e-05,0.0,0 STARLINK-5582,1 56777U 23078L   23329.91241526  .00001873  00000-0  16474-3 0  9995,2 56777  70.0003 289.4262 0002501 258.0696 102.0183 14.98330222 27638,6950.192,96.107,573.795,570.319,0.0
56777.0,STARLINK-5582,PAYLOAD,2023-11-26 07:30:40,14.98336238,0.0002472,70.0012,288.4164,262.2732,97.8146,0.00019561,2.242e-05,0.0,0 STARLINK-5582,1 56777U 23078L   23330.31296964  .00002242  00000-0  19561-3 0  9998,2 56777  70.0012 288.4164 0002472 262.2732  97.8146 14.98336238 27951,6950.174,96.107,573.757,570.321,0.0
56777.0,STARLINK-5582,PAYLOAD,2023-11-26 21:55:55,14.98318988,0.0002499,70.0014,286.9022,250.0838,110.0052,-0.00015765,-1.973e-05,0.0,0 STARLINK-5582,1 56777U 23078L   23330.91383151 -.00001973  00000-0 -15765-3 0  9993,2 56777  70.0014 286.9022 0002499 250.0838 110.0052 14.98318988 27787,6950.227,96.108,573.829,570.355,0.0
56777.0,STARLINK-5582,PAYLOAD,2023-11-27 04:20:28,14.98310391,0.0002449,70.0013,286.229,236.3898,123.7028,-0.00024973,-3.07e-05,0.0,0 STARLINK-5582,1 56777U 23078L   23331.18088082 -.00003070  00000-0 -24973-3 0  9999,2 56777  70.0013 286.2290 0002449 236.3898 123.7028 14.98310391 28082,6950.254,96.108,573.821,570.416,0.0
56777.0,STARLINK-5582,PAYLOAD,2023-11-27 07:32:44,14.9831289,0.0002469,70.0005,285.8901,249.6871,110.4023,-0.00021696,-2.679e-05,0.0,0 STARLINK-5582,1 56777U 23078L   23331.31439999 -.00002679  00000-0 -21696-3 0  9994,2 56777  70.0005 285.8901 0002469 249.6871 110.4023 14.98312890 27844,6950.246,96.108,573.827,570.395,0.0
56777.0,STARLINK-5582,PAYLOAD,2023-11-27 21:57:55,14.98344097,0.0002564,70.001,284.3731,270.5834,89.5032,-0.0003069,-3.754e-05,0.0,0 STARLINK-5582,1 56777U 23078L   23331.91522659 -.00003754  00000-0 -30690-3 0  9995,2 56777  70.0010 284.3731 0002564 270.5834  89.5032 14.98344097 27933,6950.149,96.106,573.796,570.232,0.0
56777.0,STARLINK-5582,PAYLOAD,2023-11-28 02:46:18,14.98343835,0.0001966,70.0018,283.8699,251.0127,109.0819,2.687e-05,2.28e-06,0.0,0 STARLINK-5582,1 56777U 23078L   23332.11549750  .00000228  00000-0  26870-4 0  9996,2 56777  70.0018 283.8699 0001966 251.0127 109.0819 14.98343835 28225,6950.15,96.106,573.382,570.649,0.0
56777.0,STARLINK-5582,PAYLOAD,2023-11-28 05:58:35,14.98336333,0.000224,70.0012,283.5345,247.5983,112.4939,-1.3512e-05,-2.54e-06,0.0,0 STARLINK-5582,1 56777U 23078L   23332.24902059 -.00000254  00000-0 -13512-4 0  9995,2 56777  70.0012 283.5345 0002240 247.5983 112.4939 14.98336333 28248,6950.173,96.107,573.595,570.481,0.0
56777.0,STARLINK-5582,PAYLOAD,2023-11-28 20:23:47,14.98312258,0.0002465,70.0013,282.0188,243.3591,116.7316,0.00046698,5.481e-05,0.0,0 STARLINK-5582,1 56777U 23078L   23332.84986083  .00005481  00000-0  46698-3 0  9995,2 56777  70.0013 282.0188 0002465 243.3591 116.7316 14.98312258 28332,6950.248,96.108,573.826,570.4,0.0
56777.0,STARLINK-5582,PAYLOAD,2023-11-29 07:36:44,14.9832912,0.0002728,70.0008,280.8423,239.1067,120.9825,0.00028915,3.359e-05,0.0,0 STARLINK-5582,1 56777U 23078L   23333.31717861  .00003359  00000-0  28915-3 0  9998,2 56777  70.0008 280.8423 0002728 239.1067 120.9825 14.98329120 28403,6950.196,96.107,573.957,570.165,0.0
56777.0,STARLINK-5582,PAYLOAD,2023-11-30 02:50:22,14.98319245,0.0002558,70.0022,278.8235,222.1712,137.9251,-0.00011459,-1.459e-05,0.0,0 STARLINK-5582,1 56777U 23078L   23334.11831591 -.00001459  00000-0 -11459-3 0  9990,2 56777  70.0022 278.8235 0002558 222.1712 137.9251 14.98319245 28528,6950.226,96.108,573.869,570.313,0.0
56777.0,STARLINK-5582,PAYLOAD,2023-11-30 06:02:38,14.983246,0.0001777,70.0014,278.4847,274.4944,85.6012,-3.8976e-05,-5.58e-06,0.0,0 STARLINK-5582,1 56777U 23078L   23334.25183503 -.00000558  00000-0 -38976-4 0  9991,2 56777  70.0014 278.4847 0001777 274.4944  85.6012 14.98324600 28540,6950.21,96.107,573.31,570.84,0.0
56777.0,STARLINK-5582,PAYLOAD,2023-12-01 02:52:19,14.98364481,0.0001948,70.002,276.2974,255.4899,104.6044,0.00038676,4.529e-05,0.0,0 STARLINK-5582,1 56777U 23078L   23335.11967537  .00004529  00000-0  38676-3 0  9990,2 56777  70.0020 276.2974 0001948 255.4899 104.6044 14.98364481 28674,6950.086,96.105,573.305,570.597,0.0
56777.0,STARLINK-5582,PAYLOAD,2023-12-01 06:04:38,14.98337012,0.0002003,70.0017,275.9603,261.5527,98.5405,7.0446e-05,7.48e-06,0.0,0 STARLINK-5582,1 56777U 23078L   23335.25322061  .00000748  00000-0  70446-4 0  9993,2 56777  70.0017 275.9603 0002003 261.5527  98.5405 14.98337012 28698,6950.171,96.107,573.428,570.644,0.0
56777.0,STARLINK-5582,PAYLOAD,2023-12-01 22:05:58,14.98312823,0.0002571,70.0015,274.2753,265.388,94.6985,0.0005952,7.013e-05,0.0,0 STARLINK-5582,1 56777U 23078L   23335.92081378  .00007013  00000-0  59520-3 0  9991,2 56777  70.0015 274.2753 0002571 265.3880  94.6985 14.98312823 28534,6950.246,96.108,573.898,570.324,0.0
56777.0,STARLINK-5582,PAYLOAD,2023-12-02 01:18:13,14.98344168,0.0002382,70.0017,273.9422,233.9315,126.1623,0.00031964,3.724e-05,0.0,0 STARLINK-5582,1 56777U 23078L   23336.05432253  .00003724  00000-0  31964-3 0  9995,2 56777  70.0017 273.9422 0002382 233.9315 126.1623 14.98344168 28817,6950.149,96.106,573.67,570.359,0.0
56777.0,STARLINK-5582,PAYLOAD,2023-12-02 06:06:37,14.98349532,0.0001759,70.0022,273.4371,261.7476,98.3483,0.00040262,4.717e-05,0.0,0 STARLINK-5582,1 56777U 23078L   23336.25459792  .00004717  00000-0  40262-3 0  9998,2 56777  70.0022 273.4371 0001759 261.7476  98.3483 14.98349532 28583,6950.132,96.106,573.22,570.775,0.0
56777.0,STARLINK-5582,PAYLOAD,2023-12-02 20:31:52,14.98338871,0.0002135,70.0024,271.9229,250.2892,109.8037,-0.0005378,-6.505e-05,0.0,0 STARLINK-5582,1 56777U 23078L   23336.85546915 -.00006505  00000-0 -53780-3 0  9996,2 56777  70.0024 271.9229 0002135 250.2892 109.8037 14.98338871 28930,6950.165,96.106,573.514,570.547,0.0
